[{"OBJECT_NAME":"THAICOM 8","OBJECT_ID":"2016-031A","EPOCH":"2026-04-27T01:02:21.533856","MEAN_MOTION":1.0027186,"ECCENTRICITY":0.00042408,"INCLINATION":0.0653,"RA_OF_ASC_NODE":43.8022,"ARG_OF_PERICENTER":345.1361,"MEAN_ANOMALY":280.2259,"EPHEMERIS_TYPE":0,"CLASSIFICATION_TYPE":"U","NORAD_CAT_ID":41552,"ELEMENT_SET_NO":999,"REV_AT_EPOCH":3620,"BSTAR":0,"MEAN_MOTION_DOT":-1.32e-6,"MEAN_MOTION_DDOT":0},{"OBJECT_NAME":"INTELSAT 31 (IS-31)","OBJECT_ID":"2016-035A","EPOCH":"2026-04-27T04:51:38.611872","MEAN_MOTION":1.00271579,"ECCENTRICITY":0.00021754,"INCLINATION":0.0118,"RA_OF_ASC_NODE":236.8963,"ARG_OF_PERICENTER":37.6939,"MEAN_ANOMALY":278.47,"EPHEMERIS_TYPE":0,"CLASSIFICATION_TYPE":"U","NORAD_CAT_ID":41581,"ELEMENT_SET_NO":999,"REV_AT_EPOCH":3617,"BSTAR":0,"MEAN_MOTION_DOT":-1.61e-6,"MEAN_MOTION_DDOT":0},{"OBJECT_NAME":"BEIDOU-2 G7","OBJECT_ID":"2016-037A","EPOCH":"2026-04-27T00:21:32.653728","MEAN_MOTION":1.00265134,"ECCENTRICITY":0.00077429,"INCLINATION":1.5956,"RA_OF_ASC_NODE":68.8171,"ARG_OF_PERICENTER":354.5791,"MEAN_ANOMALY":267.4255,"EPHEMERIS_TYPE":0,"CLASSIFICATION_TYPE":"U","NORAD_CAT_ID":41586,"ELEMENT_SET_NO":999,"REV_AT_EPOCH":637,"BSTAR":0,"MEAN_MOTION_DOT":-3.62e-6,"MEAN_MOTION_DDOT":0},{"OBJECT_NAME":"ABS-2A (MONGOLSAT-1)","OBJECT_ID":"2016-038A","EPOCH":"2026-04-26T23:02:21.643008","MEAN_MOTION":1.00268041,"ECCENTRICITY":0.0001674,"INCLINATION":0.0155,"RA_OF_ASC_NODE":239.385,"ARG_OF_PERICENTER":98.0393,"MEAN_ANOMALY":297.8225,"EPHEMERIS_TYPE":0,"CLASSIFICATION_TYPE":"U","NORAD_CAT_ID":41588,"ELEMENT_SET_NO":999,"REV_AT_EPOCH":3619,"BSTAR":0,"MEAN_MOTION_DOT":0,"MEAN_MOTION_DDOT":0},{"OBJECT_NAME":"EUTELSAT 117 WEST B","OBJECT_ID":"2016-038B","EPOCH":"2026-04-27T00:59:21.527232","MEAN_MOTION":1.0027203,"ECCENTRICITY":4.24e-6,"INCLINATION":0.0118,"RA_OF_ASC_NODE":96.1942,"ARG_OF_PERICENTER":27.7845,"MEAN_ANOMALY":348.9074,"EPHEMERIS_TYPE":0,"CLASSIFICATION_TYPE":"U","NORAD_CAT_ID":41589,"ELEMENT_SET_NO":999,"REV_AT_EPOCH":3615,"BSTAR":0,"MEAN_MOTION_DOT":-2.2e-7,"MEAN_MOTION_DDOT":0},{"OBJECT_NAME":"BRISAT","OBJECT_ID":"2016-039A","EPOCH":"2026-04-27T05:18:38.510784","MEAN_MOTION":1.00272016,"ECCENTRICITY":0.00021589,"INCLINATION":0.015,"RA_OF_ASC_NODE":263.1435,"ARG_OF_PERICENTER":126.9989,"MEAN_ANOMALY":55.2303,"EPHEMERIS_TYPE":0,"CLASSIFICATION_TYPE":"U","NORAD_CAT_ID":41591,"ELEMENT_SET_NO":999,"REV_AT_EPOCH":3609,"BSTAR":0,"MEAN_MOTION_DOT":-2.06e-6,"MEAN_MOTION_DDOT":0},{"OBJECT_NAME":"ECHOSTAR 18","OBJECT_ID":"2016-039B","EPOCH":"2026-04-27T04:27:38.603808","MEAN_MOTION":1.00268433,"ECCENTRICITY":0.0001376,"INCLINATION":0.0143,"RA_OF_ASC_NODE":229.892,"ARG_OF_PERICENTER":175.0114,"MEAN_ANOMALY":175.8091,"EPHEMERIS_TYPE":0,"CLASSIFICATION_TYPE":"U","NORAD_CAT_ID":41592,"ELEMENT_SET_NO":999,"REV_AT_EPOCH":3611,"BSTAR":0,"MEAN_MOTION_DOT":0,"MEAN_MOTION_DDOT":0},{"OBJECT_NAME":"MUOS-5","OBJECT_ID":"2016-041A","EPOCH":"2026-04-27T06:51:57.934944","MEAN_MOTION":1.00270878,"ECCENTRICITY":0.01947673,"INCLINATION":2.313,"RA_OF_ASC_NODE":300.7473,"ARG_OF_PERICENTER":261.6774,"MEAN_ANOMALY":10.9489,"EPHEMERIS_TYPE":0,"CLASSIFICATION_TYPE":"U","NORAD_CAT_ID":41622,"ELEMENT_SET_NO":999,"REV_AT_EPOCH":3657,"BSTAR":0,"MEAN_MOTION_DOT":-1.7e-6,"MEAN_MOTION_DDOT":0},{"OBJECT_NAME":"TIANTONG-1 1","OBJECT_ID":"2016-048A","EPOCH":"2026-04-25T17:30:54.144576","MEAN_MOTION":1.00269141,"ECCENTRICITY":0.00064406,"INCLINATION":3.7515,"RA_OF_ASC_NODE":42.9578,"ARG_OF_PERICENTER":20.2339,"MEAN_ANOMALY":154.645,"EPHEMERIS_TYPE":0,"CLASSIFICATION_TYPE":"U","NORAD_CAT_ID":41725,"ELEMENT_SET_NO":999,"REV_AT_EPOCH":3574,"BSTAR":0,"MEAN_MOTION_DOT":-3.28e-6,"MEAN_MOTION_DDOT":0},{"OBJECT_NAME":"JCSAT-16","OBJECT_ID":"2016-050A","EPOCH":"2026-04-27T05:18:38.510784","MEAN_MOTION":1.00267872,"ECCENTRICITY":0.00011662,"INCLINATION":0.0152,"RA_OF_ASC_NODE":233.3174,"ARG_OF_PERICENTER":180.4194,"MEAN_ANOMALY":25.087,"EPHEMERIS_TYPE":0,"CLASSIFICATION_TYPE":"U","NORAD_CAT_ID":41729,"ELEMENT_SET_NO":999,"REV_AT_EPOCH":3555,"BSTAR":0,"MEAN_MOTION_DOT":0,"MEAN_MOTION_DDOT":0},{"OBJECT_NAME":"USA 270","OBJECT_ID":"2016-052A","EPOCH":"2026-04-21T06:04:50.988288","MEAN_MOTION":1.00347865,"ECCENTRICITY":0.0003438,"INCLINATION":4.0526,"RA_OF_ASC_NODE":77.8945,"ARG_OF_PERICENTER":320.1673,"MEAN_ANOMALY":82.448,"EPHEMERIS_TYPE":0,"CLASSIFICATION_TYPE":"U","NORAD_CAT_ID":41744,"ELEMENT_SET_NO":999,"REV_AT_EPOCH":2756,"BSTAR":0,"MEAN_MOTION_DOT":6.0e-7,"MEAN_MOTION_DDOT":0},{"OBJECT_NAME":"USA 271","OBJECT_ID":"2016-052B","EPOCH":"2026-04-20T21:15:19.276128","MEAN_MOTION":1.00241576,"ECCENTRICITY":0.0007317,"INCLINATION":4.024,"RA_OF_ASC_NODE":77.9674,"ARG_OF_PERICENTER":143.7849,"MEAN_ANOMALY":69.2738,"EPHEMERIS_TYPE":0,"CLASSIFICATION_TYPE":"U","NORAD_CAT_ID":41745,"ELEMENT_SET_NO":999,"REV_AT_EPOCH":2734,"BSTAR":0,"MEAN_MOTION_DOT":-3.6e-6,"MEAN_MOTION_DDOT":0},{"OBJECT_NAME":"INTELSAT 36 (IS-36)","OBJECT_ID":"2016-053A","EPOCH":"2026-04-27T04:16:38.848224","MEAN_MOTION":1.00264533,"ECCENTRICITY":0.00020185,"INCLINATION":0.0113,"RA_OF_ASC_NODE":314.308,"ARG_OF_PERICENTER":5.2296,"MEAN_ANOMALY":28.2866,"EPHEMERIS_TYPE":0,"CLASSIFICATION_TYPE":"U","NORAD_CAT_ID":41747,"ELEMENT_SET_NO":999,"REV_AT_EPOCH":3544,"BSTAR":0,"MEAN_MOTION_DOT":-3.3e-7,"MEAN_MOTION_DDOT":0},{"OBJECT_NAME":"INSAT-3DR","OBJECT_ID":"2016-054A","EPOCH":"2026-04-27T02:50:38.609088","MEAN_MOTION":1.00271598,"ECCENTRICITY":0.00115614,"INCLINATION":0.1158,"RA_OF_ASC_NODE":86.2632,"ARG_OF_PERICENTER":195.0762,"MEAN_ANOMALY":50.4223,"EPHEMERIS_TYPE":0,"CLASSIFICATION_TYPE":"U","NORAD_CAT_ID":41752,"ELEMENT_SET_NO":999,"REV_AT_EPOCH":3530,"BSTAR":0,"MEAN_MOTION_DOT":-8.7e-7,"MEAN_MOTION_DDOT":0},{"OBJECT_NAME":"GSAT-18","OBJECT_ID":"2016-060A","EPOCH":"2026-04-27T02:50:38.609088","MEAN_MOTION":1.00271468,"ECCENTRICITY":0.0005098,"INCLINATION":0.0668,"RA_OF_ASC_NODE":83.1404,"ARG_OF_PERICENTER":335.27,"MEAN_ANOMALY":273.3684,"EPHEMERIS_TYPE":0,"CLASSIFICATION_TYPE":"U","NORAD_CAT_ID":41793,"ELEMENT_SET_NO":999,"REV_AT_EPOCH":3501,"BSTAR":0,"MEAN_MOTION_DOT":-8.7e-7,"MEAN_MOTION_DDOT":0},{"OBJECT_NAME":"SKY MUSTER 2 (NBN1B)","OBJECT_ID":"2016-060B","EPOCH":"2026-04-26T20:56:48.346656","MEAN_MOTION":1.00273221,"ECCENTRICITY":0.00017402,"INCLINATION":0.0156,"RA_OF_ASC_NODE":261.5652,"ARG_OF_PERICENTER":127.4937,"MEAN_ANOMALY":284.8091,"EPHEMERIS_TYPE":0,"CLASSIFICATION_TYPE":"U","NORAD_CAT_ID":41794,"ELEMENT_SET_NO":999,"REV_AT_EPOCH":3500,"BSTAR":0,"MEAN_MOTION_DOT":-2.55e-6,"MEAN_MOTION_DDOT":0},{"OBJECT_NAME":"HIMAWARI-9","OBJECT_ID":"2016-064A","EPOCH":"2026-04-27T05:26:38.695200","MEAN_MOTION":1.00274476,"ECCENTRICITY":9.325e-5,"INCLINATION":0.0394,"RA_OF_ASC_NODE":121.3895,"ARG_OF_PERICENTER":291.6043,"MEAN_ANOMALY":24.6583,"EPHEMERIS_TYPE":0,"CLASSIFICATION_TYPE":"U","NORAD_CAT_ID":41836,"ELEMENT_SET_NO":999,"REV_AT_EPOCH":3469,"BSTAR":0,"MEAN_MOTION_DOT":-2.84e-6,"MEAN_MOTION_DDOT":0}]
