THAICOM 8               
1 41552U 16031A   26117.04330479 -.00000132  00000+0  00000+0 0  9990
2 41552   0.0653  43.8022 0004240 345.1361 280.2259  1.00271860 36209
INTELSAT 31 (IS-31)     
1 41581U 16035A   26117.20253023 -.00000161  00000+0  00000+0 0  9995
2 41581   0.0118 236.8963 0002175  37.6939 278.4700  1.00271579 36177
BEIDOU-2 G7             
1 41586U 16037A   26117.01496127 -.00000362  00000+0  00000+0 0  9998
2 41586   1.5956  68.8171 0007742 354.5791 267.4255  1.00265134  6376
ABS-2A (MONGOLSAT-1)    
1 41588U 16038A   26116.95997272  .00000000  00000+0  00000+0 0  9998
2 41588   0.0155 239.3850 0001674  98.0393 297.8225  1.00268041 36195
EUTELSAT 117 WEST B     
1 41589U 16038B   26117.04122138 -.00000022  00000+0  00000+0 0  9996
2 41589   0.0118  96.1942 0000042  27.7845 348.9074  1.00272030 36154
BRISAT                  
1 41591U 16039A   26117.22127906 -.00000206  00000+0  00000+0 0  9992
2 41591   0.0150 263.1435 0002158 126.9989  55.2303  1.00272016 36097
ECHOSTAR 18             
1 41592U 16039B   26117.18586347  .00000000  00000+0  00000+0 0  9997
2 41592   0.0143 229.8920 0001376 175.0114 175.8091  1.00268433 36118
MUOS-5                  
1 41622U 16041A   26117.28608721 -.00000170  00000+0  00000+0 0  9995
2 41622   2.3130 300.7473 0194767 261.6774  10.9489  1.00270878 36572
TIANTONG-1 1            
1 41725U 16048A   26115.72979334 -.00000328  00000+0  00000+0 0  9999
2 41725   3.7515  42.9578 0006440  20.2339 154.6450  1.00269141 35748
JCSAT-16                
1 41729U 16050A   26117.22127906  .00000000  00000+0  00000+0 0  9999
2 41729   0.0152 233.3174 0001166 180.4194  25.0870  1.00267872 35550
USA 270                 
1 41744U 16052A   26111.25336792  .00000060  00000+0  00000+0 0  9996
2 41744   4.0526  77.8945 0003438 320.1673  82.4480  1.00347865 27569
USA 271                 
1 41745U 16052B   26110.88563977 -.00000360  00000+0  00000+0 0  9996
2 41745   4.0240  77.9674 0007317 143.7849  69.2738  1.00241576 27344
INTELSAT 36 (IS-36)     
1 41747U 16053A   26117.17822741 -.00000033  00000+0  00000+0 0  9992
2 41747   0.0113 314.3080 0002018   5.2296  28.2866  1.00264533 35446
INSAT-3DR               
1 41752U 16054A   26117.11850242 -.00000087  00000+0  00000+0 0  9999
2 41752   0.1158  86.2632 0011561 195.0762  50.4223  1.00271598 35307
GSAT-18                 
1 41793U 16060A   26117.11850242 -.00000087  00000+0  00000+0 0  9991
2 41793   0.0668  83.1404 0005098 335.2700 273.3684  1.00271468 35019
SKY MUSTER 2 (NBN1B)    
1 41794U 16060B   26116.87278179 -.00000255  00000+0  00000+0 0  9994
2 41794   0.0156 261.5652 0001740 127.4937 284.8091  1.00273221 35009
HIMAWARI-9              
1 41836U 16064A   26117.22683675 -.00000284  00000+0  00000+0 0  9998
2 41836   0.0394 121.3895 0000932 291.6043  24.6583  1.00274476 34699
